IRIDIUM 126             
1 42809U 17039G   24173.83512034  .00000014  00000+0 -20011-5 0  9990
2 42809  86.3963 296.7562 0001883  95.2394 264.9017 14.34215914365983
IRIDIUM 124             
1 42810U 17039H   24173.71322839  .00000463  00000+0  13174-3 0  9998
2 42810  86.4503 233.5354 0002639  96.5894 263.5608 14.43270425370472
IRIDIUM 128             
1 42811U 17039J   24173.89563349  .00000386  00000+0  13084-3 0  9995
2 42811  86.3968 328.2616 0002194  98.4091 261.7354 14.34218508366024
IRIDIUM 121             
1 42812U 17039K   24173.85415342  .00000111  00000+0  32744-4 0  9992
2 42812  86.3964 296.7709 0002260  95.1665 264.9789 14.34216624365863
IRIDIUM 133             
1 42955U 17061A   24173.92734612  .00000049  00000+0  10537-4 0  9993
2 42955  86.3970 328.3481 0002023  93.0786 267.0642 14.34217740350827
IRIDIUM 100             
1 42956U 17061B   24173.92100422  .00000303  00000+0  10121-3 0  9991
2 42956  86.3967 328.2862 0002032  92.2319 267.9110 14.34216369350824
IRIDIUM 122             
1 42957U 17061C   24173.88929055  .00000016  00000+0 -15135-5 0  9992
2 42957  86.3968 328.2980 0002075  94.0711 266.0721 14.34217628350827
IRIDIUM 129             
1 42958U 17061D   24173.91466079 -.00000027  00000+0 -16621-4 0  9992
2 42958  86.3966 328.3469 0001835  95.6487 264.4918 14.34217280350845
